1 37673U 11024A   14028.12268184  .00000593  00000-0  10171-3 0  9991
2 37673 098.0125 037.3331 0001457 104.8254 296.9872 14.72276217141620
